IRIDIUM 126             
1 42809U 17039G   25055.79244209 -.00000023  00000+0 -15296-4 0  9990
2 42809  86.4027 193.1246 0002194 100.3152 259.8291 14.34217353401538
IRIDIUM 124             
1 42810U 17039H   25055.43224935  .00000831  00000+0  24110-3 0  9996
2 42810  86.4512 130.1265 0002178  89.3681 270.7769 14.43279242406202
IRIDIUM 128             
1 42811U 17039J   25055.50410419  .00000005  00000+0 -51628-5 0  9999
2 42811  86.3963 224.7233 0002085  83.6239 276.5195 14.34217450401519
IRIDIUM 121             
1 42812U 17039K   25055.46262185  .00000050  00000+0  10704-4 0  9998
2 42812  86.4026 193.2863 0001852  90.8327 269.3080 14.34215086401357
IRIDIUM 133             
1 42955U 17061A   25055.88466060  .00000025  00000+0  17301-5 0  9998
2 42955  86.3964 224.6700 0002066  89.8379 270.3054 14.34217561386363
IRIDIUM 100             
1 42956U 17061B   25055.73877913 -.00000088  00000+0 -38528-4 0  9990
2 42956  86.3963 224.6609 0002041  89.5558 270.5872 14.34217069386363
IRIDIUM 122             
1 42957U 17061C   25055.49776236  .00000013  00000+0 -24610-5 0  9995
2 42957  86.3961 224.7605 0002238  94.2223 265.9229 14.34217539386310
IRIDIUM 129             
1 42958U 17061D   25055.73243775  .00000036  00000+0  56484-5 0  9998
2 42958  86.3960 224.7239 0001965 103.0871 257.0544 14.34217713386368
